#cV2022  2  9  0  0  0.00000000    1893   SLR   ECF FIT NSGF
## 2196 259200.00000000   180.00000000 59619 0.0000000000000
+    1   L56  0  0  0  0  0  0  0  0  0  0  0  0  0  0  0  0
+          0  0  0  0  0  0  0  0  0  0  0  0  0  0  0  0  0
+          0  0  0  0  0  0  0  0  0  0  0  0  0  0  0  0  0
+          0  0  0  0  0  0  0  0  0  0  0  0  0  0  0  0  0
+          0  0  0  0  0  0  0  0  0  0  0  0  0  0  0  0  0
++         0  0  0  0  0  0  0  0  0  0  0  0  0  0  0  0  0
++         0  0  0  0  0  0  0  0  0  0  0  0  0  0  0  0  0
++         0  0  0  0  0  0  0  0  0  0  0  0  0  0  0  0  0
++         0  0  0  0  0  0  0  0  0  0  0  0  0  0  0  0  0
++         0  0  0  0  0  0  0  0  0  0  0  0  0  0  0  0  0
%c L  cc UTC ccc cccc cccc cccc cccc ccccc ccccc ccccc ccccc
%c cc cc ccc ccc cccc cccc cccc cccc ccccc ccccc ccccc ccccc
%f  0.0000000  0.000000000  0.00000000000  0.000000000000000
%f  0.0000000  0.000000000  0.00000000000  0.000000000000000
%i    0    0    0    0      0      0      0      0         0
%i    0    0    0    0      0      0      0      0         0
/*                                                          
/* Earth-centered-fixed orbital predictions from SGF ILRS AC
/* The underlying ECF frame is that of IERS/ITRF            
/* Note: Solution based on 4-day long arc                   
/*                                                          
*  2022  2 11  3  0  0.00000000
PL56   1034.318422   -486.457241  -7096.697841
VL56 -44144.054000 -60803.771000  -2310.845500
*  2022  2 11  3  3  0.00000000
PL56    212.407911  -1555.658528  -7015.332072
VL56 -46903.311000 -57643.335000  11324.965000
*  2022  2 11  3  6  0.00000000
PL56   -643.870268  -2549.430230  -6691.345761
VL56 -47942.832000 -52453.995000  24570.075000
*  2022  2 11  3  9  0.00000000
PL56  -1502.679847  -3433.146306  -6135.874808
VL56 -47175.498000 -45457.322000  36971.837000
*  2022  2 11  3 12  0.00000000
PL56  -2331.209961  -4176.739785  -5367.984429
VL56 -44580.799000 -36936.740000  48104.159000
*  2022  2 11  3 15  0.00000000
PL56  -3096.906402  -4755.730465  -4414.068158
VL56 -40208.122000 -27227.772000  57581.178000
*  2022  2 11  3 18  0.00000000
PL56  -3768.740826  -5152.057132  -3306.998463
VL56 -34177.498000 -16705.954000  65071.056000
*  2022  2 11  3 21  0.00000000
PL56  -4318.467040  -5354.676258  -2085.041673
VL56 -26677.452000  -5773.079300  70308.287000
*  2022  2 11  3 24  0.00000000
PL56  -4721.812888  -5359.899803   -790.563979
VL56 -17959.882000   5158.002800  73104.438000
*  2022  2 11  3 27  0.00000000
PL56  -4959.550442  -5171.450252    531.434831
VL56  -8331.709200  15679.462000  73356.427000
*  2022  2 11  3 30  0.00000000
PL56  -5018.388685  -4800.223500   1834.907298
VL56   1856.430900  25404.777000  71051.471000
*  2022  2 11  3 33  0.00000000
PL56  -4891.639668  -4263.763109   3074.399921
VL56  12223.958000  33984.310000  66268.149000
*  2022  2 11  3 36  0.00000000
PL56  -4579.621807  -3585.469933   4206.675781
VL56  22375.580000  41118.956000  59173.379000
*  2022  2 11  3 39  0.00000000
PL56  -4089.781767  -2793.588607   5192.250515
VL56  31917.261000  46571.263000  50015.801000
*  2022  2 11  3 42  0.00000000
PL56  -3436.528849  -1920.020891   5996.777981
VL56  40471.919000  50173.325000  39115.815000
*  2022  2 11  3 45  0.00000000
PL56  -2640.797064   -999.028452   6592.237723
VL56  47694.038000  51831.380000  26853.774000
*  2022  2 11  3 48  0.00000000
PL56  -1729.352083    -65.877093   6957.894479
VL56  53283.325000  51527.661000  13656.295000
*  2022  2 11  3 51  0.00000000
PL56   -733.868823    844.521845   7080.994705
VL56  56996.277000  49318.766000    -18.853261
*  2022  2 11  3 54  0.00000000
PL56    310.178118   1698.917033   6957.192897
VL56  58655.707000  45331.778000 -13697.731000
*  2022  2 11  3 57  0.00000000
PL56   1364.780214   2466.935201   6590.705281
VL56  58158.388000  39758.216000 -26905.622000
*  2022  2 11  4  0  0.00000000
PL56   2390.780164   3122.169891   5994.181575
VL56  55480.537000  32845.749000 -39182.715000
*  2022  2 11  4  3  0.00000000
PL56   3349.331869   3643.106471   5188.299461
VL56  50680.841000  24888.489000 -50099.389000
*  2022  2 11  4  6  0.00000000
PL56   4203.390253   4013.855157   4201.081919
VL56  43900.412000  16215.222000 -59271.652000
*  2022  2 11  4  9  0.00000000
PL56   4919.171150   4224.660886   3066.949536
VL56  35359.798000   7176.618700 -66374.802000
*  2022  2 11  4 12  0.00000000
PL56   5467.528302   4272.170766   1825.528000
VL56  25352.246000  -1869.189600 -71157.244000
*  2022  2 11  4 15  0.00000000
PL56   5825.173610   4159.436653    520.243724
VL56  14233.378000 -10571.187000 -73449.891000
*  2022  2 11  4 18  0.00000000
PL56   5975.681714   3895.652346   -803.236804
VL56   2407.592700 -18600.288000 -73173.675000
*  2022  2 11  4 21  0.00000000
PL56   5910.222584   3495.635102  -2098.659352
VL56  -9688.435600 -25662.870000 -70342.425000
*  2022  2 11  4 24  0.00000000
PL56   5627.986256   2979.079319  -3320.848969
VL56 -21603.300000 -31512.356000 -65061.665000
*  2022  2 11  4 27  0.00000000
PL56   5136.283303   2369.625004  -4427.319525
VL56 -32889.079000 -35958.196000 -57523.552000
*  2022  2 11  4 30  0.00000000
PL56   4450.322066   1693.789177  -5379.762014
VL56 -43119.100000 -38872.086000 -47998.370000
*  2022  2 11  4 33  0.00000000
PL56   3592.677201    979.814161  -6145.349252
VL56 -51904.030000 -40190.801000 -36822.891000
*  2022  2 11  4 36  0.00000000
PL56   2592.488340    256.493811  -6697.818232
VL56 -58905.946000 -39916.044000 -24387.361000
*  2022  2 11  4 39  0.00000000
PL56   1484.427470   -447.973315  -7018.307472
VL56 -63849.719000 -38111.586000 -11121.523000
*  2022  2 11  4 42  0.00000000
PL56    307.481526  -1107.061811  -7095.939248
VL56 -66532.436000 -34898.615000   2519.632800
*  2022  2 11  4 45  0.00000000
PL56   -896.412718  -1696.894225  -6928.143445
VL56 -66830.186000 -30448.918000  16070.433000
*  2022  2 11  4 48  0.00000000
PL56  -2083.837598  -2197.083518  -6520.723659
VL56 -64702.946000 -24977.127000  29068.523000
*  2022  2 11  4 51  0.00000000
PL56  -3211.429272  -2591.424611  -5887.668785
VL56 -60196.964000 -18731.716000  41069.033000
*  2022  2 11  4 54  0.00000000
PL56  -4237.435435  -2868.415531  -5050.713330
VL56 -53444.950000 -11985.104000  51658.540000
*  2022  2 11  4 57  0.00000000
PL56  -5123.257304  -3021.596230  -4038.649006
VL56 -44663.865000  -5023.200700  60468.687000
*  2022  2 11  5  0  0.00000000
PL56  -5834.919610  -3049.688807  -2886.389577
VL56 -34149.280000   1866.015600  67189.669000
*  2022  2 11  5  3  0.00000000
PL56  -6344.410130  -2956.530726  -1633.808565
VL56 -22266.404000   8404.095400  71582.073000
*  2022  2 11  5  6  0.00000000
PL56  -6630.826766  -2750.799491   -324.378339
VL56  -9437.718000  14333.565000  73486.869000
*  2022  2 11  5  9  0.00000000
PL56  -6681.273735  -2445.536806    996.344719
VL56   3872.475800  19428.678000  72832.437000
*  2022  2 11  5 12  0.00000000
PL56  -6491.457382  -2057.491012   2282.333178
VL56  17175.866000  23504.756000  69638.365000
*  2022  2 11  5 15  0.00000000
PL56  -6065.942396  -1606.307731   3488.732347
VL56  29979.757000  26425.592000  64014.946000
*  2022  2 11  5 18  0.00000000
PL56  -5418.056018  -1113.609036   4573.460597
VL56  41806.500000  28108.407000  56159.030000
*  2022  2 11  5 21  0.00000000
PL56  -4569.443036   -602.006469   5498.700366
VL56  52212.500000  28526.163000  46345.881000
*  2022  2 11  5 24  0.00000000
PL56  -3549.301818    -94.098795   6232.216406
VL56  60804.669000  27707.054000  34918.625000
*  2022  2 11  5 27  0.00000000
PL56  -2393.339673    388.500739   6748.466805
VL56  67255.212000  25731.725000  22275.523000
*  2022  2 11  5 30  0.00000000
PL56  -1142.487445    826.064691   7029.470016
VL56  71313.169000  22728.034000   8855.877800
*  2022  2 11  5 33  0.00000000
PL56    158.570991   1201.544169   7065.408088
VL56  72813.663000  18864.497000  -4875.045300
*  2022  2 11  5 36  0.00000000
PL56   1463.001582   1501.228771   6854.956768
VL56  71683.536000  14342.125000 -18441.317000
*  2022  2 11  5 39  0.00000000
PL56   2723.507536   1715.251261   6405.339250
VL56  67944.826000   9385.310200 -31371.765000
*  2022  2 11  5 42  0.00000000
PL56   3894.051353   1837.919659   5732.101145
VL56  61715.273000   4231.885900 -43215.413000
*  2022  2 11  5 45  0.00000000
PL56   4931.558311   1867.865865   4858.605918
VL56  53205.528000   -877.302100 -53557.110000
*  2022  2 11  5 48  0.00000000
PL56   5797.539838   1808.006691   3815.258818
VL56  42713.308000  -5708.741500 -62032.052000
*  2022  2 11  5 51  0.00000000
PL56   6459.580226   1665.317143   2638.468715
VL56  30613.589000 -10046.725000 -68340.131000
*  2022  2 11  5 54  0.00000000
PL56   6892.609677   1450.421318   1369.373399
VL56  17345.255000 -13703.054000 -72257.803000
*  2022  2 11  5 57  0.00000000
PL56   7079.906631   1177.019449     52.375309
VL56   3393.936300 -16525.410000 -73647.194000
*  2022  2 11  6  0  0.00000000
PL56   7013.773629    861.178301  -1266.459013
VL56 -10726.840000 -18404.093000 -72461.907000
*  2022  2 11  6  3  0.00000000
PL56   6695.848964    520.518873  -2541.065845
VL56 -24496.745000 -19276.683000 -68748.451000
*  2022  2 11  6  6  0.00000000
PL56   6137.040301    173.342779  -3727.039945
VL56 -37409.590000 -19130.093000 -62643.875000
*  2022  2 11  6  9  0.00000000
PL56   5357.090085   -162.254599  -4783.209835
VL56 -48993.144000 -18000.053000 -54369.124000
*  2022  2 11  6 12  0.00000000
PL56   4383.798997   -469.239756  -5673.065609
VL56 -58826.944000 -15968.139000 -44219.269000
*  2022  2 11  6 15  0.00000000
PL56   3251.959811   -732.424555  -6365.986877
VL56 -66556.723000 -13156.853000 -32551.540000
*  2022  2 11  6 18  0.00000000
PL56   2002.056739   -939.146379  -6838.242746
VL56 -71906.038000  -9723.078800 -19771.843000
*  2022  2 11  6 21  0.00000000
PL56    678.786619  -1079.817562  -7073.739332
VL56 -74684.352000  -5850.246700  -6320.467900
EOF
